{
    "week": 294,
    "satellites": [
        {
            "Name": "COSMOS 2433 (720)",
            "Line1": "1 32275U 07052A   24329.23607126 -.00000043  00000+0  00000+0 0  9996",
            "Line2": "2 32275  65.8711 335.0481 0005808 252.1841 107.7871  2.13104146132916",
            "SatelliteNumber": "32275",
            "Classification": "U",
            "LaunchYear": "07",
            "LaunchNumber": "052",
            "PieceOfLaunch": "A",
            "EpochYear": "24",
            "EpochDay": 329.23607126,
            "FirstDerivativeMeanMotion": -4.3e-07,
            "SecondDerivativeMeanMotion": "00000+0",
            "BSTAR": "00000+0",
            "SetNumber": "999",
            "Inclination": 65.8711,
            "RAAN": 335.0481,
            "Eccentricity": 0.0005808,
            "ArgumentOfPerigee": 252.1841,
            "MeanAnomaly": 107.7871,
            "MeanMotion": 2.13104146,
            "RevolutionNumber": "13291"
        },
        {
            "Name": "COSMOS 2432 (719)",
            "Line1": "1 32276U 07052B   24329.28899937 -.00000043  00000+0  00000+0 0  9995",
            "Line2": "2 32276  65.8863 335.1631 0011313 310.6328  35.6539  2.13103278132938",
            "SatelliteNumber": "32276",
            "Classification": "U",
            "LaunchYear": "07",
            "LaunchNumber": "052",
            "PieceOfLaunch": "B",
            "EpochYear": "24",
            "EpochDay": 329.28899937,
            "FirstDerivativeMeanMotion": -4.3e-07,
            "SecondDerivativeMeanMotion": "00000+0",
            "BSTAR": "00000+0",
            "SetNumber": "999",
            "Inclination": 65.8863,
            "RAAN": 335.1631,
            "Eccentricity": 0.0011313,
            "ArgumentOfPerigee": 310.6328,
            "MeanAnomaly": 35.6539,
            "MeanMotion": 2.13103278,
            "RevolutionNumber": "13293"
        },
        {
            "Name": "COSMOS 2434 (721)",
            "Line1": "1 32393U 07065A   24329.59303578  .00000011  00000+0  00000+0 0  9998",
            "Line2": "2 32393  64.3154 211.1453 0003917  70.2928  95.5455  2.13101388131667",
            "SatelliteNumber": "32393",
            "Classification": "U",
            "LaunchYear": "07",
            "LaunchNumber": "065",
            "PieceOfLaunch": "A",
            "EpochYear": "24",
            "EpochDay": 329.59303578,
            "FirstDerivativeMeanMotion": 1.1e-07,
            "SecondDerivativeMeanMotion": "00000+0",
            "BSTAR": "00000+0",
            "SetNumber": "999",
            "Inclination": 64.3154,
            "RAAN": 211.1453,
            "Eccentricity": 0.0003917,
            "ArgumentOfPerigee": 70.2928,
            "MeanAnomaly": 95.5455,
            "MeanMotion": 2.13101388,
            "RevolutionNumber": "13166"
        },
        {
            "Name": "COSMOS 2436 (723)",
            "Line1": "1 32395U 07065C   24329.36696988  .00000008  00000+0  00000+0 0  9991",
            "Line2": "2 32395  64.3240 211.2192 0017284   6.1692 120.9586  2.13100126131582",
            "SatelliteNumber": "32395",
            "Classification": "U",
            "LaunchYear": "07",
            "LaunchNumber": "065",
            "PieceOfLaunch": "C",
            "EpochYear": "24",
            "EpochDay": 329.36696988,
            "FirstDerivativeMeanMotion": 8e-08,
            "SecondDerivativeMeanMotion": "00000+0",
            "BSTAR": "00000+0",
            "SetNumber": "999",
            "Inclination": 64.324,
            "RAAN": 211.2192,
            "Eccentricity": 0.0017284,
            "ArgumentOfPerigee": 6.1692,
            "MeanAnomaly": 120.9586,
            "MeanMotion": 2.13100126,
            "RevolutionNumber": "13158"
        },
        {
            "Name": "COSMOS 2456 (730)",
            "Line1": "1 36111U 09070A   24328.70535464  .00000014  00000+0  00000+0 0  9994",
            "Line2": "2 36111  64.6909  90.4854 0002056 301.7147  57.6940  2.13103656116268",
            "SatelliteNumber": "36111",
            "Classification": "U",
            "LaunchYear": "09",
            "LaunchNumber": "070",
            "PieceOfLaunch": "A",
            "EpochYear": "24",
            "EpochDay": 328.70535464,
            "FirstDerivativeMeanMotion": 1.4e-07,
            "SecondDerivativeMeanMotion": "00000+0",
            "BSTAR": "00000+0",
            "SetNumber": "999",
            "Inclination": 64.6909,
            "RAAN": 90.4854,
            "Eccentricity": 0.0002056,
            "ArgumentOfPerigee": 301.7147,
            "MeanAnomaly": 57.694,
            "MeanMotion": 2.13103656,
            "RevolutionNumber": "11626"
        },
        {
            "Name": "COSMOS 2457 (733)",
            "Line1": "1 36112U 09070B   24329.42924416  .00000009  00000+0  00000+0 0  9998",
            "Line2": "2 36112  64.6762  90.3157 0005735 153.9665 173.4483  2.13101108116281",
            "SatelliteNumber": "36112",
            "Classification": "U",
            "LaunchYear": "09",
            "LaunchNumber": "070",
            "PieceOfLaunch": "B",
            "EpochYear": "24",
            "EpochDay": 329.42924416,
            "FirstDerivativeMeanMotion": 9e-08,
            "SecondDerivativeMeanMotion": "00000+0",
            "BSTAR": "00000+0",
            "SetNumber": "999",
            "Inclination": 64.6762,
            "RAAN": 90.3157,
            "Eccentricity": 0.0005735,
            "ArgumentOfPerigee": 153.9665,
            "MeanAnomaly": 173.4483,
            "MeanMotion": 2.13101108,
            "RevolutionNumber": "11628"
        },
        {
            "Name": "COSMOS 2460 (732)",
            "Line1": "1 36402U 10007C   24329.58734986 -.00000042  00000+0  00000+0 0  9998",
            "Line2": "2 36402  65.7243 333.6737 0002990 266.8013 175.8879  2.13106320114595",
            "SatelliteNumber": "36402",
            "Classification": "U",
            "LaunchYear": "10",
            "LaunchNumber": "007",
            "PieceOfLaunch": "C",
            "EpochYear": "24",
            "EpochDay": 329.58734986,
            "FirstDerivativeMeanMotion": -4.2e-07,
            "SecondDerivativeMeanMotion": "00000+0",
            "BSTAR": "00000+0",
            "SetNumber": "999",
            "Inclination": 65.7243,
            "RAAN": 333.6737,
            "Eccentricity": 0.000299,
            "ArgumentOfPerigee": 266.8013,
            "MeanAnomaly": 175.8879,
            "MeanMotion": 2.1310632,
            "RevolutionNumber": "11459"
        },
        {
            "Name": "COSMOS 2476 (744)",
            "Line1": "1 37867U 11064A   24328.93194000  .00000017  00000+0  00000+0 0  9994",
            "Line2": "2 37867  64.9613  92.1716 0022967 231.8782 212.9028  2.13101572101665",
            "SatelliteNumber": "37867",
            "Classification": "U",
            "LaunchYear": "11",
            "LaunchNumber": "064",
            "PieceOfLaunch": "A",
            "EpochYear": "24",
            "EpochDay": 328.93194,
            "FirstDerivativeMeanMotion": 1.7e-07,
            "SecondDerivativeMeanMotion": "00000+0",
            "BSTAR": "00000+0",
            "SetNumber": "999",
            "Inclination": 64.9613,
            "RAAN": 92.1716,
            "Eccentricity": 0.0022967,
            "ArgumentOfPerigee": 231.8782,
            "MeanAnomaly": 212.9028,
            "MeanMotion": 2.13101572,
            "RevolutionNumber": "10166"
        },
        {
            "Name": "COSMOS 2477 (745)",
            "Line1": "1 37868U 11064B   24329.50382976  .00000014  00000+0  00000+0 0  9997",
            "Line2": "2 37868  64.9685  92.2264 0020115 232.2576 110.1808  2.13102989101616",
            "SatelliteNumber": "37868",
            "Classification": "U",
            "LaunchYear": "11",
            "LaunchNumber": "064",
            "PieceOfLaunch": "B",
            "EpochYear": "24",
            "EpochDay": 329.50382976,
            "FirstDerivativeMeanMotion": 1.4e-07,
            "SecondDerivativeMeanMotion": "00000+0",
            "BSTAR": "00000+0",
            "SetNumber": "999",
            "Inclination": 64.9685,
            "RAAN": 92.2264,
            "Eccentricity": 0.0020115,
            "ArgumentOfPerigee": 232.2576,
            "MeanAnomaly": 110.1808,
            "MeanMotion": 2.13102989,
            "RevolutionNumber": "10161"
        },
        {
            "Name": "COSMOS 2475 (743)",
            "Line1": "1 37869U 11064C   24329.55076904  .00000013  00000+0  00000+0 0  9993",
            "Line2": "2 37869  64.9756  92.2412 0024610 248.2474  87.8902  2.13101665101625",
            "SatelliteNumber": "37869",
            "Classification": "U",
            "LaunchYear": "11",
            "LaunchNumber": "064",
            "PieceOfLaunch": "C",
            "EpochYear": "24",
            "EpochDay": 329.55076904,
            "FirstDerivativeMeanMotion": 1.3e-07,
            "SecondDerivativeMeanMotion": "00000+0",
            "BSTAR": "00000+0",
            "SetNumber": "999",
            "Inclination": 64.9756,
            "RAAN": 92.2412,
            "Eccentricity": 0.002461,
            "ArgumentOfPerigee": 248.2474,
            "MeanAnomaly": 87.8902,
            "MeanMotion": 2.13101665,
            "RevolutionNumber": "10162"
        }
    ]
}